ONEWEB-0564             
1 55801U 23029F   24180.35421204  .00000017  00000+0  10163-4 0  9993
2 55801  87.9208  57.4856 0001601  92.8802 267.2515 13.20774159 66264
ONEWEB-0640             
1 55804U 23029J   24180.47010688  .00000165  00000+0  41143-3 0  9994
2 55804  87.8960  72.7423 0002779  83.7228 276.4218 13.14504230 64993
ONEWEB-0641             
1 55805U 23029K   24180.51143175  .00000059  00000+0  11544-3 0  9992
2 55805  87.9154  87.9705 0002174  71.6665 288.4704 13.19727171 64125
ONEWEB-0642             
1 55806U 23029L   24180.50669218  .00000067  00000+0  13488-3 0  9991
2 55806  87.9156  87.9945 0002684  56.6072 303.5317 13.19724824 64115
ONEWEB-0644             
1 55808U 23029N   24180.50195091  .00000058  00000+0  11348-3 0  9999
2 55808  87.9159  87.9918 0002329  62.4703 297.6666 13.19726526 64113
